{"type":"FeatureCollection","name":"points_of_interest","crs":{"type":"name","properties":{"name":"urn:ogc:def:crs:OGC:1.3:CRS84"}},"features":[{"type":"Feature","properties":{"id":"node/4668078084","name":"البيارة الشمالية","name_en":null,"name_ar":null,"amenity":null,"man_made":"water_well","shop":null,"tourism":null,"opening_hours":null,"beds":null,"rooms":null,"addr_full":null,"addr_housenumber":null,"addr_street":null,"addr_city":null,"source":null,"adm0_pcode":"SDN","adm0_name":"Sudan","adm1_pcode":"SD15","adm1_name":"Aj Jazirah","adm2_pcode":"SD15031","adm2_name":"Janub Al Jazirah","adm3_pcode":null,"adm3_name":null,"adm4_pcode":null,"adm4_name":null,"name_latin":"lbyr@ lshmly@"},"geometry":{"type":"Point","coordinates":[33.1521086,14.3647468]}},{"type":"Feature","properties":{"id":"node/4668078083","name":"البيارة الشرقية","name_en":null,"name_ar":null,"amenity":null,"man_made":"water_well","shop":null,"tourism":null,"opening_hours":null,"beds":null,"rooms":null,"addr_full":null,"addr_housenumber":null,"addr_street":null,"addr_city":null,"source":null,"adm0_pcode":"SDN","adm0_name":"Sudan","adm1_pcode":"SD15","adm1_name":"Aj Jazirah","adm2_pcode":"SD15031","adm2_name":"Janub Al Jazirah","adm3_pcode":null,"adm3_name":null,"adm4_pcode":null,"adm4_name":null,"name_latin":"lbyr@ lshrqy@"},"geometry":{"type":"Point","coordinates":[33.1557144,14.3615188]}},{"type":"Feature","properties":{"id":"node/4696919292","name":null,"name_en":null,"name_ar":null,"amenity":null,"man_made":"water_well","shop":null,"tourism":null,"opening_hours":null,"beds":null,"rooms":null,"addr_full":null,"addr_housenumber":null,"addr_street":null,"addr_city":null,"source":null,"adm0_pcode":"SDN","adm0_name":"Sudan","adm1_pcode":"SD15","adm1_name":"Aj Jazirah","adm2_pcode":"SD15031","adm2_name":"Janub Al Jazirah","adm3_pcode":null,"adm3_name":null,"adm4_pcode":null,"adm4_name":null,"name_latin":null},"geometry":{"type":"Point","coordinates":[33.1553733,14.3614531]}},{"type":"Feature","properties":{"id":"node/4668078082","name":"البيارة الغربية","name_en":null,"name_ar":null,"amenity":null,"man_made":"water_well","shop":null,"tourism":null,"opening_hours":null,"beds":null,"rooms":null,"addr_full":null,"addr_housenumber":null,"addr_street":null,"addr_city":null,"source":null,"adm0_pcode":"SDN","adm0_name":"Sudan","adm1_pcode":"SD15","adm1_name":"Aj Jazirah","adm2_pcode":"SD15031","adm2_name":"Janub Al Jazirah","adm3_pcode":null,"adm3_name":null,"adm4_pcode":null,"adm4_name":null,"name_latin":"lbyr@ lGrby@"},"geometry":{"type":"Point","coordinates":[33.1505019,14.3594492]}},{"type":"Feature","properties":{"id":"way/508706728","name":null,"name_en":null,"name_ar":null,"amenity":null,"man_made":"water_well","shop":null,"tourism":null,"opening_hours":null,"beds":null,"rooms":null,"addr_full":null,"addr_housenumber":null,"addr_street":null,"addr_city":null,"source":null,"adm0_pcode":"SDN","adm0_name":"Sudan","adm1_pcode":"SD15","adm1_name":"Aj Jazirah","adm2_pcode":"SD15031","adm2_name":"Janub Al Jazirah","adm3_pcode":null,"adm3_name":null,"adm4_pcode":null,"adm4_name":null,"name_latin":null},"geometry":{"type":"Polygon","coordinates":[[[33.1538798,14.3558235],[33.1540082,14.3558891],[33.1540269,14.3558552],[33.1540736,14.3557534],[33.1539219,14.3557014],[33.1538798,14.3558235]]]}},{"type":"Feature","properties":{"id":"node/4668078085","name":"البيارة الجنوبية","name_en":null,"name_ar":null,"amenity":null,"man_made":"water_well","shop":null,"tourism":null,"opening_hours":null,"beds":null,"rooms":null,"addr_full":null,"addr_housenumber":null,"addr_street":null,"addr_city":null,"source":null,"adm0_pcode":"SDN","adm0_name":"Sudan","adm1_pcode":"SD15","adm1_name":"Aj Jazirah","adm2_pcode":"SD15031","adm2_name":"Janub Al Jazirah","adm3_pcode":null,"adm3_name":null,"adm4_pcode":null,"adm4_name":null,"name_latin":"lbyr@ ljnwby@"},"geometry":{"type":"Point","coordinates":[33.1539654,14.3557881]}},{"type":"Feature","properties":{"id":"way/1434685308","name":"محطة معالجة الماء بالكريمت","name_en":null,"name_ar":null,"amenity":null,"man_made":"water_works","shop":null,"tourism":null,"opening_hours":null,"beds":null,"rooms":null,"addr_full":null,"addr_housenumber":null,"addr_street":null,"addr_city":null,"source":null,"adm0_pcode":"SDN","adm0_name":"Sudan","adm1_pcode":"SD15","adm1_name":"Aj Jazirah","adm2_pcode":"SD15036","adm2_name":"Al Manaqil","adm3_pcode":null,"adm3_name":null,"adm4_pcode":null,"adm4_name":null,"name_latin":"mHT@ m`lj@ lm blkrymt"},"geometry":{"type":"Polygon","coordinates":[[[32.9509911,14.347621],[32.9512138,14.3477015],[32.9511333,14.3478925],[32.9508999,14.3478159],[32.9509911,14.347621]]]}},{"type":"Feature","properties":{"id":"way/1100701031","name":null,"name_en":null,"name_ar":null,"amenity":null,"man_made":"storage_tank","shop":null,"tourism":null,"opening_hours":null,"beds":null,"rooms":null,"addr_full":null,"addr_housenumber":null,"addr_street":null,"addr_city":null,"source":null,"adm0_pcode":"SDN","adm0_name":"Sudan","adm1_pcode":"SD15","adm1_name":"Aj Jazirah","adm2_pcode":"SD15036","adm2_name":"Al Manaqil","adm3_pcode":null,"adm3_name":null,"adm4_pcode":null,"adm4_name":null,"name_latin":null},"geometry":{"type":"Polygon","coordinates":[[[33.0238684,14.2539308],[33.0238857,14.2539197],[33.0239062,14.2539158],[33.0239266,14.2539197],[33.023944,14.253931],[33.0239555,14.2539478],[33.0239595,14.2539677],[33.0239554,14.2539875],[33.0239438,14.2540043],[33.0239264,14.2540155],[33.023906,14.2540194],[33.0238855,14.2540154],[33.0238682,14.2540041],[33.0238566,14.2539873],[33.0238526,14.2539675],[33.0238567,14.2539476],[33.0238684,14.2539308]]]}},{"type":"Feature","properties":{"id":"way/1100701032","name":null,"name_en":null,"name_ar":null,"amenity":null,"man_made":"storage_tank","shop":null,"tourism":null,"opening_hours":null,"beds":null,"rooms":null,"addr_full":null,"addr_housenumber":null,"addr_street":null,"addr_city":null,"source":null,"adm0_pcode":"SDN","adm0_name":"Sudan","adm1_pcode":"SD15","adm1_name":"Aj Jazirah","adm2_pcode":"SD15036","adm2_name":"Al Manaqil","adm3_pcode":null,"adm3_name":null,"adm4_pcode":null,"adm4_name":null,"name_latin":null},"geometry":{"type":"Polygon","coordinates":[[[33.0237017,14.2538889],[33.0237232,14.2538843],[33.0237447,14.2538893],[33.0237618,14.2539027],[33.0237712,14.253922],[33.023771,14.2539434],[33.0237613,14.2539625],[33.023744,14.2539757],[33.0237225,14.2539803],[33.023701,14.2539754],[33.0236839,14.2539619],[33.0236745,14.2539426],[33.0236747,14.2539213],[33.0236844,14.2539021],[33.0237017,14.2538889]]]}},{"type":"Feature","properties":{"id":"way/1103927202","name":null,"name_en":null,"name_ar":null,"amenity":null,"man_made":"storage_tank","shop":null,"tourism":null,"opening_hours":null,"beds":null,"rooms":null,"addr_full":null,"addr_housenumber":null,"addr_street":null,"addr_city":null,"source":null,"adm0_pcode":"SDN","adm0_name":"Sudan","adm1_pcode":"SD15","adm1_name":"Aj Jazirah","adm2_pcode":"SD15036","adm2_name":"Al Manaqil","adm3_pcode":null,"adm3_name":null,"adm4_pcode":null,"adm4_name":null,"name_latin":null},"geometry":{"type":"Polygon","coordinates":[[[32.9792508,14.2376553],[32.9792433,14.2376644],[32.9792334,14.2376707],[32.9792218,14.2376738],[32.9792099,14.2376733],[32.9791987,14.2376692],[32.9791894,14.2376619],[32.9791829,14.2376523],[32.9791797,14.2376411],[32.9791806,14.2376283],[32.9791859,14.2376165],[32.979195,14.2376073],[32.9792069,14.2376016],[32.9792201,14.2376002],[32.9792329,14.2376032],[32.9792439,14.2376103],[32.9792518,14.2376206],[32.9792555,14.2376329],[32.979255,14.2376445],[32.9792508,14.2376553]]]}},{"type":"Feature","properties":{"id":"way/1099058934","name":null,"name_en":null,"name_ar":null,"amenity":null,"man_made":"water_tower","shop":null,"tourism":null,"opening_hours":null,"beds":null,"rooms":null,"addr_full":null,"addr_housenumber":null,"addr_street":null,"addr_city":null,"source":null,"adm0_pcode":"SDN","adm0_name":"Sudan","adm1_pcode":"SD15","adm1_name":"Aj Jazirah","adm2_pcode":"SD15036","adm2_name":"Al Manaqil","adm3_pcode":null,"adm3_name":null,"adm4_pcode":null,"adm4_name":null,"name_latin":null},"geometry":{"type":"Polygon","coordinates":[[[33.1263618,14.2334054],[33.1263701,14.2334163],[33.1263702,14.2334297],[33.1263622,14.2334407],[33.126349,14.233445],[33.1263357,14.233441],[33.1263274,14.2334302],[33.1263273,14.2334167],[33.1263353,14.2334057],[33.1263485,14.2334014],[33.1263618,14.2334054]]]}},{"type":"Feature","properties":{"id":"node/13447336737","name":null,"name_en":null,"name_ar":null,"amenity":null,"man_made":"water_tower","shop":null,"tourism":null,"opening_hours":null,"beds":null,"rooms":null,"addr_full":null,"addr_housenumber":null,"addr_street":null,"addr_city":null,"source":null,"adm0_pcode":"SDN","adm0_name":"Sudan","adm1_pcode":"SD15","adm1_name":"Aj Jazirah","adm2_pcode":"SD15031","adm2_name":"Janub Al Jazirah","adm3_pcode":null,"adm3_name":null,"adm4_pcode":null,"adm4_name":null,"name_latin":null},"geometry":{"type":"Point","coordinates":[33.4281067,14.3849044]}},{"type":"Feature","properties":{"id":"node/11057139314","name":null,"name_en":null,"name_ar":null,"amenity":null,"man_made":"water_tower","shop":null,"tourism":null,"opening_hours":null,"beds":null,"rooms":null,"addr_full":null,"addr_housenumber":null,"addr_street":null,"addr_city":null,"source":null,"adm0_pcode":"SDN","adm0_name":"Sudan","adm1_pcode":"SD15","adm1_name":"Aj Jazirah","adm2_pcode":"SD15031","adm2_name":"Janub Al Jazirah","adm3_pcode":null,"adm3_name":null,"adm4_pcode":null,"adm4_name":null,"name_latin":null},"geometry":{"type":"Point","coordinates":[33.5019301,14.3140893]}},{"type":"Feature","properties":{"id":"node/10043846498","name":null,"name_en":null,"name_ar":null,"amenity":null,"man_made":"water_tower","shop":null,"tourism":null,"opening_hours":null,"beds":null,"rooms":null,"addr_full":null,"addr_housenumber":null,"addr_street":null,"addr_city":null,"source":null,"adm0_pcode":"SDN","adm0_name":"Sudan","adm1_pcode":"SD15","adm1_name":"Aj Jazirah","adm2_pcode":"SD15036","adm2_name":"Al Manaqil","adm3_pcode":null,"adm3_name":null,"adm4_pcode":null,"adm4_name":null,"name_latin":null},"geometry":{"type":"Point","coordinates":[33.0238083,14.1764458]}},{"type":"Feature","properties":{"id":"node/7731493466","name":"An Nabtī","name_en":"An Nabti","name_ar":"النبتي","amenity":null,"man_made":"water_well","shop":null,"tourism":null,"opening_hours":null,"beds":null,"rooms":null,"addr_full":null,"addr_housenumber":null,"addr_street":null,"addr_city":null,"source":null,"adm0_pcode":"SDN","adm0_name":"Sudan","adm1_pcode":"SD15","adm1_name":"Aj Jazirah","adm2_pcode":"SD15033","adm2_name":"Sharg Al Jazirah","adm3_pcode":null,"adm3_name":null,"adm4_pcode":null,"adm4_name":null,"name_latin":"An Nabti"},"geometry":{"type":"Point","coordinates":[33.068056,15.277778]}},{"type":"Feature","properties":{"id":"node/7731426856","name":"هفر الهسّنب","name_en":"Hafir al Hassanab","name_ar":"هفر الهسّنب","amenity":null,"man_made":"water_well","shop":null,"tourism":null,"opening_hours":null,"beds":null,"rooms":null,"addr_full":null,"addr_housenumber":null,"addr_street":null,"addr_city":null,"source":null,"adm0_pcode":"SDN","adm0_name":"Sudan","adm1_pcode":"SD15","adm1_name":"Aj Jazirah","adm2_pcode":"SD15035","adm2_name":"Al Kamlin","adm3_pcode":null,"adm3_name":null,"adm4_pcode":null,"adm4_name":null,"name_latin":"Hafir al Hassanab"},"geometry":{"type":"Point","coordinates":[32.6731,15.2471]}},{"type":"Feature","properties":{"id":"node/7731492031","name":"Bi’r Sunqur","name_en":"Bi'r Sunqur","name_ar":"بئر سنقر","amenity":null,"man_made":"water_well","shop":null,"tourism":null,"opening_hours":null,"beds":null,"rooms":null,"addr_full":null,"addr_housenumber":null,"addr_street":null,"addr_city":null,"source":null,"adm0_pcode":"SDN","adm0_name":"Sudan","adm1_pcode":"SD15","adm1_name":"Aj Jazirah","adm2_pcode":"SD15033","adm2_name":"Sharg Al Jazirah","adm3_pcode":null,"adm3_name":null,"adm4_pcode":null,"adm4_name":null,"name_latin":"Bi'r Sunqur"},"geometry":{"type":"Point","coordinates":[33.666667,14.766667]}},{"type":"Feature","properties":{"id":"node/7731491978","name":"Wad Azraq","name_en":"Wad Azraq","name_ar":"ود أزرق","amenity":null,"man_made":"water_well","shop":null,"tourism":null,"opening_hours":null,"beds":null,"rooms":null,"addr_full":null,"addr_housenumber":null,"addr_street":null,"addr_city":null,"source":null,"adm0_pcode":"SDN","adm0_name":"Sudan","adm1_pcode":"SD15","adm1_name":"Aj Jazirah","adm2_pcode":"SD15033","adm2_name":"Sharg Al Jazirah","adm3_pcode":null,"adm3_name":null,"adm4_pcode":null,"adm4_name":null,"name_latin":"Wad Azraq"},"geometry":{"type":"Point","coordinates":[33.633333,15]}},{"type":"Feature","properties":{"id":"node/7731491982","name":"Kurayzāt","name_en":"Kurayzat","name_ar":"كريزات","amenity":null,"man_made":"water_well","shop":null,"tourism":null,"opening_hours":null,"beds":null,"rooms":null,"addr_full":null,"addr_housenumber":null,"addr_street":null,"addr_city":null,"source":null,"adm0_pcode":"SDN","adm0_name":"Sudan","adm1_pcode":"SD15","adm1_name":"Aj Jazirah","adm2_pcode":"SD15033","adm2_name":"Sharg Al Jazirah","adm3_pcode":null,"adm3_name":null,"adm4_pcode":null,"adm4_name":null,"name_latin":"Kurayzat"},"geometry":{"type":"Point","coordinates":[33.283333,15.033333]}},{"type":"Feature","properties":{"id":"node/7731493009","name":"Wad Akrat","name_en":"Wad Akrat","name_ar":"ود أكرت","amenity":null,"man_made":"water_well","shop":null,"tourism":null,"opening_hours":null,"beds":null,"rooms":null,"addr_full":null,"addr_housenumber":null,"addr_street":null,"addr_city":null,"source":null,"adm0_pcode":"SDN","adm0_name":"Sudan","adm1_pcode":"SD15","adm1_name":"Aj Jazirah","adm2_pcode":"SD15033","adm2_name":"Sharg Al Jazirah","adm3_pcode":null,"adm3_name":null,"adm4_pcode":null,"adm4_name":null,"name_latin":"Wad Akrat"},"geometry":{"type":"Point","coordinates":[33.373611,15.1025]}},{"type":"Feature","properties":{"id":"node/7731491985","name":"Gheseinab","name_en":"Gheseinab","name_ar":null,"amenity":null,"man_made":"water_well","shop":null,"tourism":null,"opening_hours":null,"beds":null,"rooms":null,"addr_full":null,"addr_housenumber":null,"addr_street":null,"addr_city":null,"source":null,"adm0_pcode":"SDN","adm0_name":"Sudan","adm1_pcode":"SD15","adm1_name":"Aj Jazirah","adm2_pcode":"SD15033","adm2_name":"Sharg Al Jazirah","adm3_pcode":null,"adm3_name":null,"adm4_pcode":null,"adm4_name":null,"name_latin":"Gheseinab"},"geometry":{"type":"Point","coordinates":[33.316667,15.166667]}},{"type":"Feature","properties":{"id":"node/7731491531","name":"Umm Mulayḩah","name_en":"Umm Mulayhah","name_ar":"أمّ مليحة","amenity":null,"man_made":"water_well","shop":null,"tourism":null,"opening_hours":null,"beds":null,"rooms":null,"addr_full":null,"addr_housenumber":null,"addr_street":null,"addr_city":null,"source":null,"adm0_pcode":"SDN","adm0_name":"Sudan","adm1_pcode":"SD15","adm1_name":"Aj Jazirah","adm2_pcode":"SD15033","adm2_name":"Sharg Al Jazirah","adm3_pcode":null,"adm3_name":null,"adm4_pcode":null,"adm4_name":null,"name_latin":"Umm Mulayhah"},"geometry":{"type":"Point","coordinates":[33.518611,15.178056]}},{"type":"Feature","properties":{"id":"node/5550881621","name":null,"name_en":null,"name_ar":null,"amenity":null,"man_made":"water_tower","shop":null,"tourism":null,"opening_hours":null,"beds":null,"rooms":null,"addr_full":null,"addr_housenumber":null,"addr_street":null,"addr_city":null,"source":null,"adm0_pcode":"SDN","adm0_name":"Sudan","adm1_pcode":"SD15","adm1_name":"Aj Jazirah","adm2_pcode":"SD15035","adm2_name":"Al Kamlin","adm3_pcode":null,"adm3_name":null,"adm4_pcode":null,"adm4_name":null,"name_latin":null},"geometry":{"type":"Point","coordinates":[32.7146159,15.315862]}},{"type":"Feature","properties":{"id":"node/7731491994","name":"Umm Albein","name_en":"Umm Albein","name_ar":null,"amenity":null,"man_made":"water_well","shop":null,"tourism":null,"opening_hours":null,"beds":null,"rooms":null,"addr_full":null,"addr_housenumber":null,"addr_street":null,"addr_city":null,"source":null,"adm0_pcode":"SDN","adm0_name":"Sudan","adm1_pcode":"SD15","adm1_name":"Aj Jazirah","adm2_pcode":"SD15032","adm2_name":"Um Algura","adm3_pcode":null,"adm3_name":null,"adm4_pcode":null,"adm4_name":null,"name_latin":"Umm Albein"},"geometry":{"type":"Point","coordinates":[34.016667,14.716667]}},{"type":"Feature","properties":{"id":"node/7731493176","name":"‘Umar Mudauwi","name_en":"`Umar Mudauwi","name_ar":"عمر مدأو","amenity":null,"man_made":"water_well","shop":null,"tourism":null,"opening_hours":null,"beds":null,"rooms":null,"addr_full":null,"addr_housenumber":null,"addr_street":null,"addr_city":null,"source":null,"adm0_pcode":"SDN","adm0_name":"Sudan","adm1_pcode":"SD15","adm1_name":"Aj Jazirah","adm2_pcode":"SD15034","adm2_name":"Al Hasahisa","adm3_pcode":null,"adm3_name":null,"adm4_pcode":null,"adm4_name":null,"name_latin":"`Umar Mudauwi"},"geometry":{"type":"Point","coordinates":[32.616667,15]}},{"type":"Feature","properties":{"id":"node/7731492591","name":"هفر كلفت","name_en":"Hafir Kilfit","name_ar":"هفر كلفت","amenity":null,"man_made":"water_well","shop":null,"tourism":null,"opening_hours":null,"beds":null,"rooms":null,"addr_full":null,"addr_housenumber":null,"addr_street":null,"addr_city":null,"source":null,"adm0_pcode":"SDN","adm0_name":"Sudan","adm1_pcode":"SD15","adm1_name":"Aj Jazirah","adm2_pcode":"SD15034","adm2_name":"Al Hasahisa","adm3_pcode":null,"adm3_name":null,"adm4_pcode":null,"adm4_name":null,"name_latin":"Hafir Kilfit"},"geometry":{"type":"Point","coordinates":[32.6062,15.0941]}},{"type":"Feature","properties":{"id":"node/7731492592","name":"هفر هج سإد","name_en":"Hafir Haj Said","name_ar":"هفر هج سإد","amenity":null,"man_made":"water_well","shop":null,"tourism":null,"opening_hours":null,"beds":null,"rooms":null,"addr_full":null,"addr_housenumber":null,"addr_street":null,"addr_city":null,"source":null,"adm0_pcode":"SDN","adm0_name":"Sudan","adm1_pcode":"SD15","adm1_name":"Aj Jazirah","adm2_pcode":"SD15034","adm2_name":"Al Hasahisa","adm3_pcode":null,"adm3_name":null,"adm4_pcode":null,"adm4_name":null,"name_latin":"Hafir Haj Said"},"geometry":{"type":"Point","coordinates":[32.5689,15.1407]}},{"type":"Feature","properties":{"id":"node/7731492593","name":"هفر بقر","name_en":"Hafir Baqara","name_ar":"هفر بقر","amenity":null,"man_made":"water_well","shop":null,"tourism":null,"opening_hours":null,"beds":null,"rooms":null,"addr_full":null,"addr_housenumber":null,"addr_street":null,"addr_city":null,"source":null,"adm0_pcode":"SDN","adm0_name":"Sudan","adm1_pcode":"SD15","adm1_name":"Aj Jazirah","adm2_pcode":"SD15035","adm2_name":"Al Kamlin","adm3_pcode":null,"adm3_name":null,"adm4_pcode":null,"adm4_name":null,"name_latin":"Hafir Baqara"},"geometry":{"type":"Point","coordinates":[32.727,15.1172]}},{"type":"Feature","properties":{"id":"node/7731493181","name":"Mus‘ad ‘Abd Allāh","name_en":"Mus`ad `Abd Allah","name_ar":"مسعد عبد الله","amenity":null,"man_made":"water_well","shop":null,"tourism":null,"opening_hours":null,"beds":null,"rooms":null,"addr_full":null,"addr_housenumber":null,"addr_street":null,"addr_city":null,"source":null,"adm0_pcode":"SDN","adm0_name":"Sudan","adm1_pcode":"SD15","adm1_name":"Aj Jazirah","adm2_pcode":"SD15034","adm2_name":"Al Hasahisa","adm3_pcode":null,"adm3_name":null,"adm4_pcode":null,"adm4_name":null,"name_latin":"Mus`ad `Abd Allah"},"geometry":{"type":"Point","coordinates":[32.7,15.083333]}},{"type":"Feature","properties":{"id":"node/7731426865","name":"حفير الفكي الياس","name_en":"Hafir al Faki al Yas","name_ar":"حفيؤ الفكي الياس","amenity":null,"man_made":"water_well","shop":null,"tourism":null,"opening_hours":null,"beds":null,"rooms":null,"addr_full":null,"addr_housenumber":null,"addr_street":null,"addr_city":null,"source":null,"adm0_pcode":"SDN","adm0_name":"Sudan","adm1_pcode":"SD15","adm1_name":"Aj Jazirah","adm2_pcode":"SD15034","adm2_name":"Al Hasahisa","adm3_pcode":null,"adm3_name":null,"adm4_pcode":null,"adm4_name":null,"name_latin":"Hafir al Faki al Yas"},"geometry":{"type":"Point","coordinates":[32.728,15.043]}},{"type":"Feature","properties":{"id":"node/7731492589","name":"هفر البقيب","name_en":"Hafir al Baqyab","name_ar":"هفر البقيب","amenity":null,"man_made":"water_well","shop":null,"tourism":null,"opening_hours":null,"beds":null,"rooms":null,"addr_full":null,"addr_housenumber":null,"addr_street":null,"addr_city":null,"source":null,"adm0_pcode":"SDN","adm0_name":"Sudan","adm1_pcode":"SD15","adm1_name":"Aj Jazirah","adm2_pcode":"SD15034","adm2_name":"Al Hasahisa","adm3_pcode":null,"adm3_name":null,"adm4_pcode":null,"adm4_name":null,"name_latin":"Hafir al Baqyab"},"geometry":{"type":"Point","coordinates":[32.7459,15.0351]}},{"type":"Feature","properties":{"id":"node/7731493177","name":"ود الكريل","name_en":"Wad el Kereil","name_ar":null,"amenity":null,"man_made":"water_well","shop":null,"tourism":null,"opening_hours":null,"beds":null,"rooms":null,"addr_full":null,"addr_housenumber":null,"addr_street":null,"addr_city":null,"source":null,"adm0_pcode":"SDN","adm0_name":"Sudan","adm1_pcode":"SD15","adm1_name":"Aj Jazirah","adm2_pcode":"SD15034","adm2_name":"Al Hasahisa","adm3_pcode":null,"adm3_name":null,"adm4_pcode":null,"adm4_name":null,"name_latin":"Wad el Kereil"},"geometry":{"type":"Point","coordinates":[32.75,15.016667]}},{"type":"Feature","properties":{"id":"node/7235877716","name":null,"name_en":null,"name_ar":null,"amenity":null,"man_made":"water_tower","shop":null,"tourism":null,"opening_hours":null,"beds":null,"rooms":null,"addr_full":null,"addr_housenumber":null,"addr_street":null,"addr_city":null,"source":null,"adm0_pcode":"SDN","adm0_name":"Sudan","adm1_pcode":"SD15","adm1_name":"Aj Jazirah","adm2_pcode":"SD15035","adm2_name":"Al Kamlin","adm3_pcode":null,"adm3_name":null,"adm4_pcode":null,"adm4_name":null,"name_latin":null},"geometry":{"type":"Point","coordinates":[33.0903324,15.015332]}},{"type":"Feature","properties":{"id":"node/8421786089","name":null,"name_en":null,"name_ar":null,"amenity":null,"man_made":"storage_tank","shop":null,"tourism":null,"opening_hours":null,"beds":null,"rooms":null,"addr_full":null,"addr_housenumber":null,"addr_street":null,"addr_city":null,"source":null,"adm0_pcode":"SDN","adm0_name":"Sudan","adm1_pcode":"SD15","adm1_name":"Aj Jazirah","adm2_pcode":"SD15035","adm2_name":"Al Kamlin","adm3_pcode":null,"adm3_name":null,"adm4_pcode":null,"adm4_name":null,"name_latin":null},"geometry":{"type":"Point","coordinates":[33.16813,15.00227]}},{"type":"Feature","properties":{"id":"node/8401106066","name":null,"name_en":null,"name_ar":null,"amenity":null,"man_made":"storage_tank","shop":null,"tourism":null,"opening_hours":null,"beds":null,"rooms":null,"addr_full":null,"addr_housenumber":null,"addr_street":null,"addr_city":null,"source":null,"adm0_pcode":"SDN","adm0_name":"Sudan","adm1_pcode":"SD15","adm1_name":"Aj Jazirah","adm2_pcode":"SD15035","adm2_name":"Al Kamlin","adm3_pcode":null,"adm3_name":null,"adm4_pcode":null,"adm4_name":null,"name_latin":null},"geometry":{"type":"Point","coordinates":[33.107142,14.9993207]}},{"type":"Feature","properties":{"id":"node/7731491986","name":"Ba‘abish","name_en":"Ba`abish","name_ar":"بعبش","amenity":null,"man_made":"water_well","shop":null,"tourism":null,"opening_hours":null,"beds":null,"rooms":null,"addr_full":null,"addr_housenumber":null,"addr_street":null,"addr_city":null,"source":null,"adm0_pcode":"SDN","adm0_name":"Sudan","adm1_pcode":"SD15","adm1_name":"Aj Jazirah","adm2_pcode":"SD15033","adm2_name":"Sharg Al Jazirah","adm3_pcode":null,"adm3_name":null,"adm4_pcode":null,"adm4_name":null,"name_latin":"Ba`abish"},"geometry":{"type":"Point","coordinates":[33.266667,15.2]}},{"type":"Feature","properties":{"id":"node/7731491981","name":"Khalfallāb","name_en":"Khalfallab","name_ar":"خلفلّاب","amenity":null,"man_made":"water_well","shop":null,"tourism":null,"opening_hours":null,"beds":null,"rooms":null,"addr_full":null,"addr_housenumber":null,"addr_street":null,"addr_city":null,"source":null,"adm0_pcode":"SDN","adm0_name":"Sudan","adm1_pcode":"SD15","adm1_name":"Aj Jazirah","adm2_pcode":"SD15033","adm2_name":"Sharg Al Jazirah","adm3_pcode":null,"adm3_name":null,"adm4_pcode":null,"adm4_name":null,"name_latin":"Khalfallab"},"geometry":{"type":"Point","coordinates":[33.283333,15.266667]}},{"type":"Feature","properties":{"id":"node/7731491977","name":"‘Idd al Abyaḑ","name_en":"`Idd al Abyad","name_ar":"عدّ الأبيض","amenity":null,"man_made":"water_well","shop":null,"tourism":null,"opening_hours":null,"beds":null,"rooms":null,"addr_full":null,"addr_housenumber":null,"addr_street":null,"addr_city":null,"source":null,"adm0_pcode":"SDN","adm0_name":"Sudan","adm1_pcode":"SD15","adm1_name":"Aj Jazirah","adm2_pcode":"SD15033","adm2_name":"Sharg Al Jazirah","adm3_pcode":null,"adm3_name":null,"adm4_pcode":null,"adm4_name":null,"name_latin":"`Idd al Abyad"},"geometry":{"type":"Point","coordinates":[33.433333,15.266667]}}]}